{
  "norad_id": 63312,
  "name": "STARLINK-11650 [DTC]",
  "history": [
    {
      "epoch": "2026-03-28T21:09:11.051424",
      "apogee_km": 357.8482323756534,
      "perigee_km": 354.93756855267293,
      "latitude_deg": -42.35016407325852,
      "longitude_deg": -124.18772064009681,
      "semi_major_axis_km": 6734.529900464163,
      "eccentricity": 0.0002161,
      "inclination_deg": 43.001,
      "raan_deg": 149.0575,
      "arg_perigee_deg": 51.2004,
      "mean_anomaly_deg": 308.9056,
      "mean_motion_rev_day": 15.70875744
    }
  ]
}